[{"OBJECT_NAME":"SCATSAT 1","OBJECT_ID":"2016-059H","EPOCH":"2026-03-05T04:32:45.977856","MEAN_MOTION":14.7924632,"ECCENTRICITY":0.00541242,"INCLINATION":98.1312,"RA_OF_ASC_NODE":126.8491,"ARG_OF_PERICENTER":222.1872,"MEAN_ANOMALY":137.5168,"EPHEMERIS_TYPE":0,"CLASSIFICATION_TYPE":"U","NORAD_CAT_ID":41790,"ELEMENT_SET_NO":999,"REV_AT_EPOCH":8621,"BSTAR":0.00027580175,"MEAN_MOTION_DOT":2.043e-5,"MEAN_MOTION_DDOT":0},{"OBJECT_NAME":"GOKTURK 1A","OBJECT_ID":"2016-073A","EPOCH":"2026-03-05T06:31:20.909856","MEAN_MOTION":14.62743457,"ECCENTRICITY":0.0001374,"INCLINATION":98.1377,"RA_OF_ASC_NODE":320.51,"ARG_OF_PERICENTER":77.5747,"MEAN_ANOMALY":282.5608,"EPHEMERIS_TYPE":0,"CLASSIFICATION_TYPE":"U","NORAD_CAT_ID":41875,"ELEMENT_SET_NO":999,"REV_AT_EPOCH":49363,"BSTAR":0.00011608269,"MEAN_MOTION_DOT":5.45e-6,"MEAN_MOTION_DDOT":0},{"OBJECT_NAME":"RESOURCESAT-2A","OBJECT_ID":"2016-074A","EPOCH":"2026-03-05T07:50:52.691136","MEAN_MOTION":14.21599154,"ECCENTRICITY":0.00026554,"INCLINATION":98.7614,"RA_OF_ASC_NODE":138.6496,"ARG_OF_PERICENTER":46.0416,"MEAN_ANOMALY":314.098,"EPHEMERIS_TYPE":0,"CLASSIFICATION_TYPE":"U","NORAD_CAT_ID":41877,"ELEMENT_SET_NO":999,"REV_AT_EPOCH":47954,"BSTAR":0.00018542822,"MEAN_MOTION_DOT":3.62e-6,"MEAN_MOTION_DDOT":0},{"OBJECT_NAME":"CARTOSAT-2D","OBJECT_ID":"2017-008A","EPOCH":"2026-03-05T07:00:34.948224","MEAN_MOTION":15.19332525,"ECCENTRICITY":0.00045615,"INCLINATION":97.4244,"RA_OF_ASC_NODE":125.4685,"ARG_OF_PERICENTER":232.6026,"MEAN_ANOMALY":127.4794,"EPHEMERIS_TYPE":0,"CLASSIFICATION_TYPE":"U","NORAD_CAT_ID":41948,"ELEMENT_SET_NO":999,"REV_AT_EPOCH":50180,"BSTAR":0.00028347673,"MEAN_MOTION_DOT":5.923e-5,"MEAN_MOTION_DDOT":0},{"OBJECT_NAME":"SENTINEL-2B","OBJECT_ID":"2017-013A","EPOCH":"2026-03-05T06:59:37.751424","MEAN_MOTION":14.30817721,"ECCENTRICITY":0.00011017,"INCLINATION":98.5668,"RA_OF_ASC_NODE":140.5492,"ARG_OF_PERICENTER":96.033,"MEAN_ANOMALY":264.0978,"EPHEMERIS_TYPE":0,"CLASSIFICATION_TYPE":"U","NORAD_CAT_ID":42063,"ELEMENT_SET_NO":999,"REV_AT_EPOCH":46978,"BSTAR":3.7422693e-5,"MEAN_MOTION_DOT":5.4e-7,"MEAN_MOTION_DDOT":0},{"OBJECT_NAME":"CARTOSAT-2E","OBJECT_ID":"2017-036C","EPOCH":"2026-03-05T07:25:07.205088","MEAN_MOTION":15.19274522,"ECCENTRICITY":0.00028885,"INCLINATION":97.4406,"RA_OF_ASC_NODE":125.7548,"ARG_OF_PERICENTER":314.0403,"MEAN_ANOMALY":46.0593,"EPHEMERIS_TYPE":0,"CLASSIFICATION_TYPE":"U","NORAD_CAT_ID":42767,"ELEMENT_SET_NO":999,"REV_AT_EPOCH":48237,"BSTAR":0.00033930286,"MEAN_MOTION_DOT":7.091e-5,"MEAN_MOTION_DDOT":0},{"OBJECT_NAME":"FORMOSAT-5","OBJECT_ID":"2017-049A","EPOCH":"2026-03-05T06:12:33.875424","MEAN_MOTION":14.50818687,"ECCENTRICITY":0.00119093,"INCLINATION":98.2318,"RA_OF_ASC_NODE":141.8623,"ARG_OF_PERICENTER":49.1618,"MEAN_ANOMALY":311.0607,"EPHEMERIS_TYPE":0,"CLASSIFICATION_TYPE":"U","NORAD_CAT_ID":42920,"ELEMENT_SET_NO":999,"REV_AT_EPOCH":45160,"BSTAR":9.1415448e-5,"MEAN_MOTION_DOT":3.17e-6,"MEAN_MOTION_DDOT":0},{"OBJECT_NAME":"SENTINEL-5P","OBJECT_ID":"2017-064A","EPOCH":"2026-03-05T07:19:15.564864","MEAN_MOTION":14.19547922,"ECCENTRICITY":0.00011011,"INCLINATION":98.7878,"RA_OF_ASC_NODE":7.1982,"ARG_OF_PERICENTER":80.8033,"MEAN_ANOMALY":279.3267,"EPHEMERIS_TYPE":0,"CLASSIFICATION_TYPE":"U","NORAD_CAT_ID":42969,"ELEMENT_SET_NO":999,"REV_AT_EPOCH":43482,"BSTAR":7.9453572e-5,"MEAN_MOTION_DOT":1.23e-6,"MEAN_MOTION_DDOT":0},{"OBJECT_NAME":"SKYSAT-C11","OBJECT_ID":"2017-068A","EPOCH":"2026-03-05T07:59:36.352896","MEAN_MOTION":15.5206575,"ECCENTRICITY":7.383e-5,"INCLINATION":97.4196,"RA_OF_ASC_NODE":209.1745,"ARG_OF_PERICENTER":86.8754,"MEAN_ANOMALY":273.2583,"EPHEMERIS_TYPE":0,"CLASSIFICATION_TYPE":"U","NORAD_CAT_ID":42987,"ELEMENT_SET_NO":999,"REV_AT_EPOCH":46710,"BSTAR":0.00055626176,"MEAN_MOTION_DOT":0.00033536,"MEAN_MOTION_DDOT":0},{"OBJECT_NAME":"SKYSAT-C10","OBJECT_ID":"2017-068B","EPOCH":"2026-03-05T02:18:33.167808","MEAN_MOTION":15.32545551,"ECCENTRICITY":0.00011345,"INCLINATION":97.4332,"RA_OF_ASC_NODE":200.1868,"ARG_OF_PERICENTER":90.7177,"MEAN_ANOMALY":269.4195,"EPHEMERIS_TYPE":0,"CLASSIFICATION_TYPE":"U","NORAD_CAT_ID":42988,"ELEMENT_SET_NO":999,"REV_AT_EPOCH":46640,"BSTAR":0.00043958412,"MEAN_MOTION_DOT":0.00013746,"MEAN_MOTION_DDOT":0},{"OBJECT_NAME":"SKYSAT-C9","OBJECT_ID":"2017-068C","EPOCH":"2026-03-05T02:18:22.085280","MEAN_MOTION":15.38708919,"ECCENTRICITY":0.00097169,"INCLINATION":97.4257,"RA_OF_ASC_NODE":200.1847,"ARG_OF_PERICENTER":147.8994,"MEAN_ANOMALY":212.2845,"EPHEMERIS_TYPE":0,"CLASSIFICATION_TYPE":"U","NORAD_CAT_ID":42989,"ELEMENT_SET_NO":999,"REV_AT_EPOCH":46673,"BSTAR":0.00049259401,"MEAN_MOTION_DOT":0.0001881,"MEAN_MOTION_DDOT":0},{"OBJECT_NAME":"SKYSAT-C8","OBJECT_ID":"2017-068D","EPOCH":"2026-03-04T19:49:29.276256","MEAN_MOTION":15.34611478,"ECCENTRICITY":0.00013261,"INCLINATION":97.4337,"RA_OF_ASC_NODE":199.3361,"ARG_OF_PERICENTER":99.1187,"MEAN_ANOMALY":261.0206,"EPHEMERIS_TYPE":0,"CLASSIFICATION_TYPE":"U","NORAD_CAT_ID":42990,"ELEMENT_SET_NO":999,"REV_AT_EPOCH":46629,"BSTAR":0.00022359988,"MEAN_MOTION_DOT":7.418e-5,"MEAN_MOTION_DDOT":0},{"OBJECT_NAME":"SKYSAT-C7","OBJECT_ID":"2017-068E","EPOCH":"2026-03-05T08:06:09.943776","MEAN_MOTION":15.34581892,"ECCENTRICITY":0.00073799,"INCLINATION":97.4359,"RA_OF_ASC_NODE":200.8353,"ARG_OF_PERICENTER":116.7846,"MEAN_ANOMALY":243.4153,"EPHEMERIS_TYPE":0,"CLASSIFICATION_TYPE":"U","NORAD_CAT_ID":42991,"ELEMENT_SET_NO":999,"REV_AT_EPOCH":46643,"BSTAR":0.00047473238,"MEAN_MOTION_DOT":0.00015853,"MEAN_MOTION_DDOT":0},{"OBJECT_NAME":"SKYSAT-C6","OBJECT_ID":"2017-068F","EPOCH":"2026-03-05T07:51:53.636832","MEAN_MOTION":15.32619,"ECCENTRICITY":0.00035979,"INCLINATION":97.4397,"RA_OF_ASC_NODE":201.1231,"ARG_OF_PERICENTER":122.1784,"MEAN_ANOMALY":237.9807,"EPHEMERIS_TYPE":0,"CLASSIFICATION_TYPE":"U","NORAD_CAT_ID":42992,"ELEMENT_SET_NO":999,"REV_AT_EPOCH":46640,"BSTAR":0.00046641919,"MEAN_MOTION_DOT":0.00014627,"MEAN_MOTION_DDOT":0},{"OBJECT_NAME":"CARTOSAT-2F","OBJECT_ID":"2018-004A","EPOCH":"2026-03-05T06:36:22.075200","MEAN_MOTION":15.19210709,"ECCENTRICITY":5.492e-5,"INCLINATION":97.4169,"RA_OF_ASC_NODE":125.515,"ARG_OF_PERICENTER":236.2564,"MEAN_ANOMALY":123.8618,"EPHEMERIS_TYPE":0,"CLASSIFICATION_TYPE":"U","NORAD_CAT_ID":43111,"ELEMENT_SET_NO":999,"REV_AT_EPOCH":45155,"BSTAR":0.00021113468,"MEAN_MOTION_DOT":4.377e-5,"MEAN_MOTION_DDOT":0},{"OBJECT_NAME":"GAOFEN-1 02","OBJECT_ID":"2018-031A","EPOCH":"2026-03-05T08:06:44.089920","MEAN_MOTION":14.76473819,"ECCENTRICITY":0.0002681,"INCLINATION":98.0655,"RA_OF_ASC_NODE":127.0965,"ARG_OF_PERICENTER":1.8515,"MEAN_ANOMALY":358.2704,"EPHEMERIS_TYPE":0,"CLASSIFICATION_TYPE":"U","NORAD_CAT_ID":43259,"ELEMENT_SET_NO":999,"REV_AT_EPOCH":42737,"BSTAR":0.00024501306,"MEAN_MOTION_DOT":1.654e-5,"MEAN_MOTION_DDOT":0}]
