SCATSAT 1               
1 41790U 16059H   26064.18942104  .00002043  00000+0  27580-3 0  9992
2 41790  98.1312 126.8491 0054124 222.1872 137.5168 14.79246320 86214
GOKTURK 1A              
1 41875U 16073A   26064.27176979  .00000545  00000+0  11608-3 0  9990
2 41875  98.1377 320.5100 0001374  77.5747 282.5608 14.62743457493634
RESOURCESAT-2A          
1 41877U 16074A   26064.32699874  .00000362  00000+0  18543-3 0  9995
2 41877  98.7614 138.6496 0002655  46.0416 314.0980 14.21599154479545
CARTOSAT-2D             
1 41948U 17008A   26064.29207116  .00005923  00000+0  28348-3 0  9994
2 41948  97.4244 125.4685 0004561 232.6026 127.4794 15.19332525501800
SENTINEL-2B             
1 42063U 17013A   26064.29140916  .00000054  00000+0  37423-4 0  9998
2 42063  98.5668 140.5492 0001101  96.0330 264.0978 14.30817721469782
CARTOSAT-2E             
1 42767U 17036C   26064.30911117  .00007091  00000+0  33930-3 0  9991
2 42767  97.4406 125.7548 0002888 314.0403  46.0593 15.19274522482370
FORMOSAT-5              
1 42920U 17049A   26064.25872541  .00000317  00000+0  91415-4 0  9994
2 42920  98.2318 141.8623 0011909  49.1618 311.0607 14.50818687451606
SENTINEL-5P             
1 42969U 17064A   26064.30504126  .00000123  00000+0  79454-4 0  9995
2 42969  98.7878   7.1982 0001101  80.8033 279.3267 14.19547922434822
SKYSAT-C11              
1 42987U 17068A   26064.33305964  .00033536  00000+0  55626-3 0  9999
2 42987  97.4196 209.1745 0000738  86.8754 273.2583 15.52065750467106
SKYSAT-C10              
1 42988U 17068B   26064.09621722  .00013746  00000+0  43958-3 0  9992
2 42988  97.4332 200.1868 0001134  90.7177 269.4195 15.32545551466408
SKYSAT-C9               
1 42989U 17068C   26064.09608895  .00018810  00000+0  49259-3 0  9996
2 42989  97.4257 200.1847 0009716 147.8994 212.2845 15.38708919466736
SKYSAT-C8               
1 42990U 17068D   26063.82603329  .00007418  00000+0  22360-3 0  9991
2 42990  97.4337 199.3361 0001326  99.1187 261.0206 15.34611478466292
SKYSAT-C7               
1 42991U 17068E   26064.33761509  .00015853  00000+0  47473-3 0  9998
2 42991  97.4359 200.8353 0007379 116.7846 243.4153 15.34581892466435
SKYSAT-C6               
1 42992U 17068F   26064.32770413  .00014627  00000+0  46642-3 0  9997
2 42992  97.4397 201.1231 0003597 122.1784 237.9807 15.32619000466409
CARTOSAT-2F             
1 43111U 18004A   26064.27525550  .00004377  00000+0  21113-3 0  9993
2 43111  97.4169 125.5150 0000549 236.2564 123.8618 15.19210709451557
GAOFEN-1 02             
1 43259U 18031A   26064.33801030  .00001654  00000+0  24501-3 0  9992
2 43259  98.0655 127.0965 0002681   1.8515 358.2704 14.76473819427377
